[{"OBJECT_NAME":"STARLINK-32684","OBJECT_ID":"2024-229C","EPOCH":"2026-03-09T22:40:51.670272","MEAN_MOTION":15.27598065,"ECCENTRICITY":0.0002292,"INCLINATION":43.0032,"RA_OF_ASC_NODE":268.9966,"ARG_OF_PERICENTER":265.5822,"MEAN_ANOMALY":94.4768,"EPHEMERIS_TYPE":0,"CLASSIFICATION_TYPE":"U","NORAD_CAT_ID":62194,"ELEMENT_SET_NO":999,"REV_AT_EPOCH":7178,"BSTAR":0.001086571,"MEAN_MOTION_DOT":0.00029776,"MEAN_MOTION_DDOT":0},{"OBJECT_NAME":"OBJECT F","OBJECT_ID":"2026-023F","EPOCH":"2026-03-09T17:11:01.401216","MEAN_MOTION":15.23264948,"ECCENTRICITY":0.00223432,"INCLINATION":96.6318,"RA_OF_ASC_NODE":144.1544,"ARG_OF_PERICENTER":121.6413,"MEAN_ANOMALY":238.701,"EPHEMERIS_TYPE":0,"CLASSIFICATION_TYPE":"U","NORAD_CAT_ID":67679,"ELEMENT_SET_NO":999,"REV_AT_EPOCH":484,"BSTAR":0.00053756888,"MEAN_MOTION_DOT":0.00012778,"MEAN_MOTION_DDOT":0}]
